start=new Date('2022-08-09T00:00:00.000Z').valueOf();
sats=[{"LAUNCH_DATE":"2020-01-07","EPHEMERIS_TYPE":"0","RA_OF_ASC_NODE":"106.2338","APOAPSIS":"548.466","MEAN_MOTION_DDOT":"0.0000000000000","OBJECT_NAME":"STARLINK-1130","GP_ID":"209829184","EPOCH":"2022-08-07T22:59:32.809632","ECCENTRICITY":"0.00017960","NORAD_CAT_ID":"44932","ARG_OF_PERICENTER":"82.0893","MEAN_MOTION_DOT":"-0.00001137","SEMIMAJOR_AXIS":"6925.357","CLASSIFICATION_TYPE":"U","OBJECT_TYPE":"PAYLOAD","MEAN_ANOMALY":"278.0300","PERIOD":"95.592","DECAY_DATE":null,"OBJECT_ID":"2020-001U","INCLINATION":"53.0553","REV_AT_EPOCH":"14367","TIME_SYSTEM":"UTC","BSTAR":"-0.00005746900000","FILE":"3532128","REF_FRAME":"TEME","ELEMENT_SET_NO":"999","TLE_LINE1":"1 44932U 20001U   22219.95801863 -.00001137  00000-0 -57469-4 0  9990","TLE_LINE2":"2 44932  53.0553 106.2338 0001796  82.0893 278.0300 15.06397207143672","RCS_SIZE":"LARGE","MEAN_ELEMENT_THEORY":"SGP4","CENTER_NAME":"EARTH","MEAN_MOTION":"15.06397207","SITE":"AFETR","COUNTRY_CODE":"US","PERIAPSIS":"545.978"},{"MEAN_MOTION_DOT":"0.00001413","ARG_OF_PERICENTER":"71.7921","NORAD_CAT_ID":"44933","ECCENTRICITY":"0.00014510","INCLINATION":"53.0555","OBJECT_ID":"2020-001V","PERIOD":"95.592","DECAY_DATE":null,"OBJECT_TYPE":"PAYLOAD","MEAN_ANOMALY":"288.3225","CLASSIFICATION_TYPE":"U","SEMIMAJOR_AXIS":"6925.329","RA_OF_ASC_NODE":"102.8548","EPHEMERIS_TYPE":"0","LAUNCH_DATE":"2020-01-07","EPOCH":"2022-08-08T17:07:37.356384","GP_ID":"209859127","OBJECT_NAME":"STARLINK-1144","MEAN_MOTION_DDOT":"0.0000000000000","APOAPSIS":"548.199","SITE":"AFETR","MEAN_MOTION":"15.06406251","MEAN_ELEMENT_THEORY":"SGP4","CENTER_NAME":"EARTH","RCS_SIZE":"LARGE","PERIAPSIS":"546.190","COUNTRY_CODE":"US","TIME_SYSTEM":"UTC","REV_AT_EPOCH":"14384","TLE_LINE2":"2 44933  53.0555 102.8548 0001451  71.7921 288.3225 15.06406251143844","ELEMENT_SET_NO":"999","TLE_LINE1":"1 44933U 20001V   22220.71362681  .00001413  00000-0  11370-3 0  9992","BSTAR":"0.00011370000000","FILE":"3532305","REF_FRAME":"TEME"},{"COUNTRY_CODE":"US","PERIAPSIS":"546.144","RCS_SIZE":"LARGE","CENTER_NAME":"EARTH","MEAN_ELEMENT_THEORY":"SGP4","MEAN_MOTION":"15.06398479","SITE":"AFETR","TLE_LINE1":"1 44934U 20001W   22220.66018540  .00001694  00000-0  13263-3 0  9993","ELEMENT_SET_NO":"999","REF_FRAME":"TEME","FILE":"3532305","BSTAR":"0.00013263000000","TLE_LINE2":"2 44934  53.0560  83.0941 0001551  92.7398 267.3768 15.06398479142828","REV_AT_EPOCH":"14282","TIME_SYSTEM":"UTC","SEMIMAJOR_AXIS":"6925.353","MEAN_ANOMALY":"267.3768","OBJECT_TYPE":"PAYLOAD","CLASSIFICATION_TYPE":"U","OBJECT_ID":"2020-001W","PERIOD":"95.592","DECAY_DATE":null,"INCLINATION":"53.0560","ECCENTRICITY":"0.00015510","ARG_OF_PERICENTER":"92.7398","NORAD_CAT_ID":"44934","MEAN_MOTION_DOT":"0.00001694","APOAPSIS":"548.292","MEAN_MOTION_DDOT":"0.0000000000000","GP_ID":"209859377","OBJECT_NAME":"STARLINK-1071","EPOCH":"2022-08-08T15:50:40.018560","LAUNCH_DATE":"2020-01-07","EPHEMERIS_TYPE":"0","RA_OF_ASC_NODE":"83.0941"},{"PERIAPSIS":"546.166","COUNTRY_CODE":"US","MEAN_ELEMENT_THEORY":"SGP4","CENTER_NAME":"EARTH","MEAN_MOTION":"15.06409708","SITE":"AFETR","RCS_SIZE":"LARGE","TLE_LINE2":"2 44937  53.0555  82.8883 0001469  90.2464 269.8694 15.06409708142836","FILE":"3532305","BSTAR":"0.00007364700000","REF_FRAME":"TEME","ELEMENT_SET_NO":"999","TLE_LINE1":"1 44937U 20001Z   22220.70441461  .00000816  00000-0  73647-4 0  9991","REV_AT_EPOCH":"14283","TIME_SYSTEM":"UTC","PERIOD":"95.592","DECAY_DATE":null,"OBJECT_ID":"2020-001Z","INCLINATION":"53.0555","SEMIMAJOR_AXIS":"6925.319","CLASSIFICATION_TYPE":"U","OBJECT_TYPE":"PAYLOAD","MEAN_ANOMALY":"269.8694","NORAD_CAT_ID":"44937","ARG_OF_PERICENTER":"90.2464","MEAN_MOTION_DOT":"0.00000816","ECCENTRICITY":"0.00014690","OBJECT_NAME":"STARLINK-1079","GP_ID":"209858126","EPOCH":"2022-08-08T16:54:21.422304","APOAPSIS":"548.201","MEAN_MOTION_DDOT":"0.0000000000000","RA_OF_ASC_NODE":"82.8883","EPHEMERIS_TYPE":"0","LAUNCH_DATE":"2020-01-07"},{"GP_ID":"209858376","OBJECT_NAME":"STARLINK-1082","EPOCH":"2022-08-08T20:53:12.634368","APOAPSIS":"548.263","MEAN_MOTION_DDOT":"0.0000000000000","RA_OF_ASC_NODE":"82.1470","LAUNCH_DATE":"2020-01-07","EPHEMERIS_TYPE":"0","OBJECT_ID":"2020-001AA","PERIOD":"95.591","DECAY_DATE":null,"INCLINATION":"53.0550","SEMIMAJOR_AXIS":"6925.289","OBJECT_TYPE":"PAYLOAD","MEAN_ANOMALY":"281.0961","CLASSIFICATION_TYPE":"U","ARG_OF_PERICENTER":"79.0208","NORAD_CAT_ID":"44938","MEAN_MOTION_DOT":"0.00012038","ECCENTRICITY":"0.00016010","TLE_LINE2":"2 44938  53.0550  82.1470 0001601  79.0208 281.0961 15.06419412142854","ELEMENT_SET_NO":"999","TLE_LINE1":"1 44938U 20001AA  22220.87028512  .00012038  00000-0  82521-3 0  9997","FILE":"3532305","BSTAR":"0.00082521000000","REF_FRAME":"TEME","REV_AT_EPOCH":"14285","TIME_SYSTEM":"UTC","PERIAPSIS":"546.045","COUNTRY_CODE":"US","CENTER_NAME":"EARTH","MEAN_ELEMENT_THEORY":"SGP4","SITE":"AFETR","MEAN_MOTION":"15.06419412","RCS_SIZE":"LARGE"},{"GP_ID":"209859626","OBJECT_NAME":"STARLINK-1083","EPOCH":"2022-08-08T21:03:48.572064","APOAPSIS":"548.217","MEAN_MOTION_DDOT":"0.0000000000000","RA_OF_ASC_NODE":"82.1040","LAUNCH_DATE":"2020-01-07","EPHEMERIS_TYPE":"0","OBJECT_ID":"2020-001AB","DECAY_DATE":null,"PERIOD":"95.591","INCLINATION":"53.0550","SEMIMAJOR_AXIS":"6925.317","MEAN_ANOMALY":"272.8705","OBJECT_TYPE":"PAYLOAD","CLASSIFICATION_TYPE":"U","ARG_OF_PERICENTER":"87.2455","NORAD_CAT_ID":"44939","MEAN_MOTION_DOT":"0.00002333","ECCENTRICITY":"0.00014950","TLE_LINE2":"2 44939  53.0550  82.1040 0001495  87.2455 272.8705 15.06410294142857","ELEMENT_SET_NO":"999","TLE_LINE1":"1 44939U 20001AB  22220.87764551  .00002333  00000-0  17540-3 0  9994","BSTAR":"0.00017540000000","FILE":"3532305","REF_FRAME":"TEME","REV_AT_EPOCH":"14285","TIME_SYSTEM":"UTC","PERIAPSIS":"546.147","COUNTRY_CODE":"US","CENTER_NAME":"EARTH","MEAN_ELEMENT_THEORY":"SGP4","MEAN_MOTION":"15.06410294","SITE":"AFETR","RCS_SIZE":"LARGE"},{"CLASSIFICATION_TYPE":"U","MEAN_ANOMALY":"282.1670","OBJECT_TYPE":"PAYLOAD","SEMIMAJOR_AXIS":"6925.299","INCLINATION":"53.0554","PERIOD":"95.591","DECAY_DATE":null,"OBJECT_ID":"2020-001AC","ECCENTRICITY":"0.00016770","MEAN_MOTION_DOT":"0.00002447","NORAD_CAT_ID":"44940","ARG_OF_PERICENTER":"77.9507","MEAN_MOTION_DDOT":"0.0000000000000","APOAPSIS":"548.325","EPOCH":"2022-08-08T21:19:43.857984","OBJECT_NAME":"STARLINK-1091","GP_ID":"209859877","LAUNCH_DATE":"2020-01-07","EPHEMERIS_TYPE":"0","RA_OF_ASC_NODE":"82.0618","COUNTRY_CODE":"US","PERIAPSIS":"546.003","RCS_SIZE":"LARGE","MEAN_MOTION":"15.06416180","SITE":"AFETR","MEAN_ELEMENT_THEORY":"SGP4","CENTER_NAME":"EARTH","REF_FRAME":"TEME","FILE":"3532305","BSTAR":"0.00018302000000","TLE_LINE1":"1 44940U 20001AC  22220.88870206  .00002447  00000-0  18302-3 0  9995","ELEMENT_SET_NO":"999","TLE_LINE2":"2 44940  53.0554  82.0618 0001677  77.9507 282.1670 15.06416180142854","TIME_SYSTEM":"UTC","REV_AT_EPOCH":"14285"},{"PERIAPSIS":"546.049","COUNTRY_CODE":"US","MEAN_MOTION":"15.06404173","SITE":"AFETR","CENTER_NAME":"EARTH","MEAN_ELEMENT_THEORY":"SGP4","RCS_SIZE":"LARGE","TLE_LINE2":"2 44941  53.0559  81.9653 0001663  72.4926 287.6244 15.06404173142864","BSTAR":"0.00014748000000","FILE":"3532305","REF_FRAME":"TEME","ELEMENT_SET_NO":"999","TLE_LINE1":"1 44941U 20001AD  22220.91082291  .00001916  00000-0  14748-3 0  9999","TIME_SYSTEM":"UTC","REV_AT_EPOCH":"14286","INCLINATION":"53.0559","PERIOD":"95.592","DECAY_DATE":null,"OBJECT_ID":"2020-001AD","CLASSIFICATION_TYPE":"U","OBJECT_TYPE":"PAYLOAD","MEAN_ANOMALY":"287.6244","SEMIMAJOR_AXIS":"6925.336","MEAN_MOTION_DOT":"0.00001916","NORAD_CAT_ID":"44941","ARG_OF_PERICENTER":"72.4926","ECCENTRICITY":"0.00016630","EPOCH":"2022-08-08T21:51:35.099424","OBJECT_NAME":"STARLINK-1094","GP_ID":"209858626","MEAN_MOTION_DDOT":"0.0000000000000","APOAPSIS":"548.352","RA_OF_ASC_NODE":"81.9653","LAUNCH_DATE":"2020-01-07","EPHEMERIS_TYPE":"0"},{"ELEMENT_SET_NO":"999","TLE_LINE1":"1 44942U 20001AE  22220.89054322  .00014963  00000-0  96568-3 0  9997","BSTAR":"0.00096568000000","FILE":"3532305","REF_FRAME":"TEME","TLE_LINE2":"2 44942  53.0544  81.2898 0002039  65.5660 294.5542 15.08473782142872","REV_AT_EPOCH":"14287","TIME_SYSTEM":"UTC","COUNTRY_CODE":"US","PERIAPSIS":"539.454","RCS_SIZE":"LARGE","CENTER_NAME":"EARTH","MEAN_ELEMENT_THEORY":"SGP4","MEAN_MOTION":"15.08473782","SITE":"AFETR","APOAPSIS":"542.276","MEAN_MOTION_DDOT":"0.0000000000000","GP_ID":"209858876","OBJECT_NAME":"STARLINK-1096","EPOCH":"2022-08-08T21:22:22.934208","EPHEMERIS_TYPE":"0","LAUNCH_DATE":"2020-01-07","RA_OF_ASC_NODE":"81.2898","SEMIMAJOR_AXIS":"6919.000","MEAN_ANOMALY":"294.5542","OBJECT_TYPE":"PAYLOAD","CLASSIFICATION_TYPE":"U","OBJECT_ID":"2020-001AE","PERIOD":"95.461","DECAY_DATE":null,"INCLINATION":"53.0544","ECCENTRICITY":"0.00020390","ARG_OF_PERICENTER":"65.5660","NORAD_CAT_ID":"44942","MEAN_MOTION_DOT":"0.00014963"},{"PERIAPSIS":"546.239","COUNTRY_CODE":"US","SITE":"AFETR","MEAN_MOTION":"15.06418465","CENTER_NAME":"EARTH","MEAN_ELEMENT_THEORY":"SGP4","RCS_SIZE":"LARGE","TLE_LINE2":"2 44943  53.0543  82.1291 0001325  87.0886 273.0254 15.06418465142850","FILE":"3532305","REF_FRAME":"TEME","BSTAR":"0.00053862000000","TLE_LINE1":"1 44943U 20001AF  22220.87396463  .00007754  00000-0  53862-3 0  9991","ELEMENT_SET_NO":"999","TIME_SYSTEM":"UTC","REV_AT_EPOCH":"14285","INCLINATION":"53.0543","DECAY_DATE":null,"PERIOD":"95.591","OBJECT_ID":"2020-001AF","CLASSIFICATION_TYPE":"U","OBJECT_TYPE":"PAYLOAD","MEAN_ANOMALY":"273.0254","SEMIMAJOR_AXIS":"6925.292","MEAN_MOTION_DOT":"0.00007754","NORAD_CAT_ID":"44943","ARG_OF_PERICENTER":"87.0886","ECCENTRICITY":"0.00013250","EPOCH":"2022-08-08T20:58:30.544032","OBJECT_NAME":"STARLINK-1100","GP_ID":"209859128","MEAN_MOTION_DDOT":"0.0000000000000","APOAPSIS":"548.075","RA_OF_ASC_NODE":"82.1291","LAUNCH_DATE":"2020-01-07","EPHEMERIS_TYPE":"0"}];
